STARLINK-36542          
1 67445U 26008A   26043.91670139 -.02042493  00000+0 -46968-1 0  9992
2 67445  43.0008 345.7213 0001323 271.5608 202.3350 15.45361487  5819
STARLINK-36539          
1 67446U 26008B   26043.91670139 -.02008525  00000+0 -57760-1 0  9993
2 67446  43.0001 345.7368 0001445 271.2415 196.3957 15.38688882  5810
STARLINK-36440          
1 67447U 26008C   26043.91670139 -.02068177  00000+0 -45545-1 0  9991
2 67447  43.0002 345.2031 0001248 250.0901  73.9733 15.46650937  5811
STARLINK-36423          
1 67448U 26008D   26043.00096519  .00071866  00000+0  12205-2 0  9999
2 67448  42.9995 351.1629 0001096 233.8361 126.2398 15.50558051  5638
STARLINK-36519          
1 67449U 26008E   26043.91670139 -.02028203  00000+0 -55968-1 0  9999
2 67449  43.0000 345.4216 0000780 261.7251 333.6553 15.39974243  5812
STARLINK-36525          
1 67450U 26008F   26043.89348042  .00098619  00000+0  17101-2 0  9995
2 67450  43.0106 345.8090 0007874 260.4986  99.4984 15.49809498  5777
STARLINK-36511          
1 67451U 26008G   26043.91670139 -.02060572  00000+0 -47307-1 0  9995
2 67451  43.0005 345.8083 0001419 265.2725 172.8789 15.45439380  5810
STARLINK-36524          
1 67452U 26008H   26043.91670139 -.02010552  00000+0 -54418-1 0  9990
2 67452  43.0004 345.7307 0001281 268.6732 200.8809 15.40516336  5817
STARLINK-36518          
1 67453U 26008J   26043.91670139 -.01976774  00000+0 -65243-1 0  9995
2 67453  42.9993 345.3829 0000958 261.8424 342.2324 15.34406739  5834
STARLINK-36517          
1 67454U 26008K   26043.90565390  .00029413  00000+0  52092-3 0  9993
2 67454  42.9996 345.9132 0003376 331.6551  28.4124 15.49713598  5779
STARLINK-36516          
1 67455U 26008L   26043.89557134  .00086976  00000+0  14676-2 0  9991
2 67455  42.9995 345.8319 0001883 232.1478 127.9212 15.50661786  5775
STARLINK-36493          
1 67456U 26008M   26043.82883404  .00090767  00000+0  15322-2 0  9999
2 67456  42.9972 346.1871 0001850 239.3826 120.6852 15.50632363  5766
STARLINK-36529          
1 67457U 26008N   26043.91670139 -.02069816  00000+0 -54846-1 0  9997
2 67457  43.0006 345.5044 0000794 271.2832 289.6321 15.41261584  5816
STARLINK-36528          
1 67458U 26008P   26043.91670139 -.02024013  00000+0 -46378-1 0  9999
2 67458  43.0003 345.1202 0001303 252.5923 104.5412 15.45432065  5832
STARLINK-36546          
1 67459U 26008Q   26043.91670139 -.02099609  00000+0 -63678-1 0  9995
2 67459  42.9997 345.5912 0000917 268.6151 256.2777 15.36656009  5819
STARLINK-36523          
1 67460U 26008R   26043.91670139 -.02112903  00000+0 -61756-1 0  9995
2 67460  43.0004 345.5262 0000711 266.8749 284.5518 15.37808399  5836
STARLINK-36522          
1 67461U 26008S   26043.89285842  .00120319  00000+0  20175-2 0  9993
2 67461  42.9998 345.8098 0001712 228.9641 131.1071 15.50688091  5773
STARLINK-36504          
1 67462U 26008T   26043.91670139 -.01994881  00000+0 -56635-1 0  9999
2 67462  42.9994 345.3059 0000854 246.0526  35.0697 15.39056832  5833
STARLINK-36505          
1 67463U 26008U   26043.91670139 -.02030608  00000+0 -47918-1 0  9993
2 67463  43.0000 345.3094 0000910 251.4237  28.6818 15.44595135  5816
STARLINK-36421          
1 67464U 26008V   26043.82784484  .00083654  00000+0  14135-2 0  9994
2 67464  42.9957 346.1823 0000795 287.8134  72.2639 15.50640454  5767
STARLINK-36437          
1 67465U 26008W   26043.21782150  .00099491  00000+0  16734-2 0  9999
2 67465  43.0007 349.3350 0009697 250.7286 109.2525 15.50647057  5674
STARLINK-36520          
1 67466U 26008X   26043.91670139 -.02108425  00000+0 -60797-1 0  9999
2 67466  43.0003 345.5858 0000973 260.3842 266.4538 15.38210827  5818
STARLINK-36425          
1 67467U 26008Y   26043.90434157  .00106844  00000+0  19283-2 0  9991
2 67467  42.9976 345.8968 0000610 345.1575  14.9266 15.48664307  5770
STARLINK-36414          
1 67468U 26008Z   26042.25201223  .00148743  00000+0  24893-2 0  9992
2 67468  43.0000 354.9811 0001619 288.2757  71.7927 15.50624812  5526
STARLINK-36441          
1 67469U 26008AA  26043.91670139 -.02112479  00000+0 -61117-1 0  9993
2 67469  42.9996 345.5428 0000898 264.3926 277.4162 15.38116800  5817
STARLINK-36454          
1 67470U 26008AB  26043.91670139 -.02066277  00000+0 -44585-1 0  9999
2 67470  42.9994 345.3131 0001390 249.1435  25.9921 15.47228724  5818
STARLINK-36334          
1 67471U 26008AC  26043.91670139 -.00004395  00000+0 -14645-3 0  9997
2 67471  43.0004 345.5882 0001321 258.4630 262.6669 15.28403382  5815
STARLINK-36269          
1 67472U 26008AD  26043.91670139 -.02043853  00000+0 -63922-1 0  9992
2 67472  43.0003 345.4400 0000778 279.9362 302.6907 15.35621613  5834
STARLINK-36408          
1 67473U 26008AE  26043.91670139 -.02031599  00000+0 -53213-1 0  9999
2 67473  42.9996 345.4165 0000760 266.4203 326.6783 15.41536066  5830
ALSAT-3A                
1 67474U 26009A   26043.91665161  .00006674  00000+0  28191-3 0  9991
2 67474  97.4676 118.5556 0012817 155.7570 204.4272 15.23513439  4358
CZ-2C R/B               
1 67475U 26009B   26043.90568610  .00002819  00000+0  19087-3 0  9993
2 67475  97.1738 116.2782 0100381 124.2475 236.8310 15.03154629  4352
TIANQI-37               
1 67476U 26010A   26039.27753693  .00000165  00000+0  15719-3 0  9998
2 67476  44.9825 296.6529 0012909  70.2546 289.9683 14.13528441  3324
TIANQI-38               
1 67477U 26010B   26039.27310946  .00000208  00000+0  17865-3 0  9991
2 67477  44.9788 296.6199 0011754  75.6443 284.5700 14.13905796  3321
TIANQI-39               
1 67478U 26010C   26039.27859865  .00000167  00000+0  15988-3 0  9998
2 67478  44.9839 296.6613 0016488  82.3005 277.9705 14.13055169  3329
TIANQI-40               
1 67479U 26010D   26040.19213046  .00000156  00000+0  15351-3 0  9999
2 67479  44.9786 292.4342 0011741  80.4003 279.8161 14.13182235  3454
SZ-20 MODULE            
1 67481U 25082C   26043.33395883  .00027032  00000+0  29497-3 0  9997
2 67481  41.4801   1.8792 0007393 164.3748 195.7321 15.62718537273654
2025-313BE              
1 67482U 25313BE  26043.67630985  .00065793  00000+0  25436-2 0  9991
2 67482  97.4061 120.5119 0008520  76.2734 283.9452 15.25943177  4156
ION SCV-021             
1 67483U 25276DT  26034.18647169 -.00137880  00000+0 -12184-1 0  9992
2 67483  97.5347 109.4970 0011364 207.9438 152.1175 14.97059561  2554
STARLINK-36551          
1 67493U 26012A   26043.91670139 -.01874156  00000+0 -45555-1 0  9999
2 67493  43.0004  94.9448 0001500 280.8129 158.3916 15.43451468  5094
STARLINK-36396          
1 67494U 26012B   26043.50669403  .00091001  00000+0  15335-2 0  9998
2 67494  43.0004  98.1000 0001112 358.6780   1.4077 15.50679657  3893
STARLINK-36550          
1 67495U 26012C   26043.91670139 -.01504474  00000+0 -27916-1 0  9995
2 67495  43.0007  95.1979 0001521 269.1221  67.0160 15.50980551  5092
STARLINK-36534          
1 67496U 26012D   26043.91670139 -.01939540  00000+0 -40660-1 0  9993
2 67496  43.0001  94.9179 0001378 284.8038 164.4567 15.47833594  5033
STARLINK-36555          
1 67497U 26012E   26043.91670139 -.01941997  00000+0 -41238-1 0  9995
2 67497  43.0002  94.9376 0001419 283.2030 158.1822 15.47471987  5099
STARLINK-36081          
1 67498U 26012F   26043.91670139  .00033849  00000+0  58113-3 0  9993
2 67498  43.0009  95.1923 0001544 264.6575  73.1437 15.50538475  5036
STARLINK-36558          
1 67499U 26012G   26043.91670139  .00037227  00000+0  63833-3 0  9993
2 67499  43.0010  95.1861 0001569 265.4470  74.8332 15.50536428  5094
STARLINK-36557          
1 67500U 26012H   26043.91670139 -.01940785  00000+0 -43563-1 0  9997
2 67500  43.0004  94.6809 0000983 285.0122 260.2973 15.45885090  5095
STARLINK-36433          
1 67501U 26012J   26043.91670139 -.01946266  00000+0 -43148-1 0  9997
2 67501  42.9997  94.6430 0000993 283.1923 277.5606 15.46251008  5095
STARLINK-36554          
1 67502U 26012K   26043.91670139 -.00134182  00000+0 -23165-2 0  9991
2 67502  43.0004  94.9285 0001571 265.3319 179.1436 15.50629969  5034
STARLINK-36552          
1 67503U 26012L   26043.91670139 -.01885083  00000+0 -40218-1 0  9993
2 67503  43.0001  94.5451 0000917 285.9122 314.6287 15.47245658  5097
STARLINK-36512          
1 67504U 26012M   26043.91670139 -.00937270  00000+0 -17200-1 0  9994
2 67504  43.0008  94.6517 0001131 276.5448 279.7925 15.50900832  5091
STARLINK-36545          
1 67505U 26012N   26043.91670139 -.00390701  00000+0 -69552-2 0  9995
2 67505  43.0008  94.6063 0001329 270.9778 303.7072 15.50725779  5097
STARLINK-36553          
1 67506U 26012P   26043.91670139 -.01956275  00000+0 -36903-1 0  9994
2 67506  43.0007  94.5054 0000859 270.7767 344.7416 15.50830696  5091
STARLINK-36521          
1 67507U 26012Q   26043.91670139 -.01480102  00000+0 -27435-1 0  9996
2 67507  43.0007  94.4956 0001103 258.5511   1.1479 15.50966885  5099
STARLINK-36526          
1 67508U 26012R   26043.91670139 -.00339335  00000+0 -60063-2 0  9992
2 67508  43.0004  94.4820 0001143 258.0973   6.8388 15.50702111  5099
STARLINK-36541          
1 67509U 26012S   26043.56085671  .00037662  00000+0  64459-3 0  9995
2 67509  43.0009  97.6402 0000522 273.0467  87.0333 15.50584019  3905
STARLINK-36549          
1 67510U 26012T   26043.91670139 -.01955614  00000+0 -38690-1 0  9990
2 67510  43.0004  94.3565 0001234 266.6075  45.6120 15.49496257  5034
STARLINK-36540          
1 67511U 26012U   26043.49478179  .00109093  00000+0  18378-2 0  9995
2 67511  42.9998  98.0023 0001545 283.1830  76.8858 15.50605478  3898
STARLINK-36538          
1 67512U 26012V   26043.91670139 -.01916602  00000+0 -47048-1 0  9993
2 67512  43.0007  94.7920 0001371 293.6042 205.3205 15.43238406  5093
STARLINK-36531          
1 67513U 26012W   26043.91670139 -.01940283  00000+0 -45402-1 0  9998
2 67513  43.0004  94.7019 0001155 288.1534 247.1969 15.44679657  5038
